CCSDS_OMM_VERS = 2.0
CREATION_DATE  = 
ORIGINATOR     = 

OBJECT_NAME    = SL-3 R/B
OBJECT_ID      = 1982-079B
CENTER_NAME    = EARTH
REF_FRAME      = TEME
TIME_SYSTEM    = UTC
MEAN_ELEMENT_THEORY = SGP/SGP4

EPOCH          = 2025-12-09T03:13:30.531360
MEAN_MOTION    = 15.23521483
ECCENTRICITY   = .0026958
INCLINATION    = 81.1473
RA_OF_ASC_NODE = 299.9102
ARG_OF_PERICENTER = 110.5867
MEAN_ANOMALY   = 249.8261

EPHEMERIS_TYPE = 0
CLASSIFICATION_TYPE = U
NORAD_CAT_ID   = 13403
ELEMENT_SET_NO = 999
REV_AT_EPOCH   = 36390
BSTAR          = .28711E-3
MEAN_MOTION_DOT = .6951E-4
MEAN_MOTION_DDOT = 0

CCSDS_OMM_VERS = 2.0
CREATION_DATE  = 
ORIGINATOR     = 

OBJECT_NAME    = SL-14 R/B
OBJECT_ID      = 1982-092B
CENTER_NAME    = EARTH
REF_FRAME      = TEME
TIME_SYSTEM    = UTC
MEAN_ELEMENT_THEORY = SGP/SGP4

EPOCH          = 2025-12-08T23:15:16.310592
MEAN_MOTION    = 14.86549519
ECCENTRICITY   = .00189908
INCLINATION    = 82.5688
RA_OF_ASC_NODE = 226.2381
ARG_OF_PERICENTER = 240.4689
MEAN_ANOMALY   = 130.0152

EPHEMERIS_TYPE = 0
CLASSIFICATION_TYPE = U
NORAD_CAT_ID   = 13553
ELEMENT_SET_NO = 999
REV_AT_EPOCH   = 31545
BSTAR          = .83118314E-4
MEAN_MOTION_DOT = .762E-5
MEAN_MOTION_DDOT = 0

CCSDS_OMM_VERS = 2.0
CREATION_DATE  = 
ORIGINATOR     = 

OBJECT_NAME    = SL-3 R/B
OBJECT_ID      = 1983-010B
CENTER_NAME    = EARTH
REF_FRAME      = TEME
TIME_SYSTEM    = UTC
MEAN_ELEMENT_THEORY = SGP/SGP4

EPOCH          = 2025-12-09T01:50:13.118208
MEAN_MOTION    = 15.43304161
ECCENTRICITY   = .001736
INCLINATION    = 81.1042
RA_OF_ASC_NODE = 113.0898
ARG_OF_PERICENTER = 3.9108
MEAN_ANOMALY   = 356.2267

EPHEMERIS_TYPE = 0
CLASSIFICATION_TYPE = U
NORAD_CAT_ID   = 13819
ELEMENT_SET_NO = 999
REV_AT_EPOCH   = 34395
BSTAR          = .37311E-3
MEAN_MOTION_DOT = .16743E-3
MEAN_MOTION_DDOT = 0

CCSDS_OMM_VERS = 2.0
CREATION_DATE  = 
ORIGINATOR     = 

OBJECT_NAME    = SL-3 R/B
OBJECT_ID      = 1983-075B
CENTER_NAME    = EARTH
REF_FRAME      = TEME
TIME_SYSTEM    = UTC
MEAN_ELEMENT_THEORY = SGP/SGP4

EPOCH          = 2025-12-09T03:20:33.679680
MEAN_MOTION    = 15.36021262
ECCENTRICITY   = .0022345
INCLINATION    = 97.6107
RA_OF_ASC_NODE = 339.5019
ARG_OF_PERICENTER = 188.3037
MEAN_ANOMALY   = 171.7839

EPHEMERIS_TYPE = 0
CLASSIFICATION_TYPE = U
NORAD_CAT_ID   = 14208
ELEMENT_SET_NO = 999
REV_AT_EPOCH   = 31624
BSTAR          = .36317E-3
MEAN_MOTION_DOT = .12763E-3
MEAN_MOTION_DDOT = 0

CCSDS_OMM_VERS = 2.0
CREATION_DATE  = 
ORIGINATOR     = 

OBJECT_NAME    = COSMOS 1536
OBJECT_ID      = 1984-013A
CENTER_NAME    = EARTH
REF_FRAME      = TEME
TIME_SYSTEM    = UTC
MEAN_ELEMENT_THEORY = SGP/SGP4

EPOCH          = 2025-12-09T01:26:29.482944
MEAN_MOTION    = 15.22455565
ECCENTRICITY   = .0013368
INCLINATION    = 82.5455
RA_OF_ASC_NODE = 197.8137
ARG_OF_PERICENTER = 239.9466
MEAN_ANOMALY   = 120.0445

EPHEMERIS_TYPE = 0
CLASSIFICATION_TYPE = U
NORAD_CAT_ID   = 14699
ELEMENT_SET_NO = 999
REV_AT_EPOCH   = 25882
BSTAR          = .3018E-3
MEAN_MOTION_DOT = .703E-4
MEAN_MOTION_DDOT = 0

CCSDS_OMM_VERS = 2.0
CREATION_DATE  = 
ORIGINATOR     = 

OBJECT_NAME    = SL-14 R/B
OBJECT_ID      = 1984-027B
CENTER_NAME    = EARTH
REF_FRAME      = TEME
TIME_SYSTEM    = UTC
MEAN_ELEMENT_THEORY = SGP/SGP4

EPOCH          = 2025-12-09T01:17:21.795936
MEAN_MOTION    = 14.85867983
ECCENTRICITY   = .0016386
INCLINATION    = 82.5410
RA_OF_ASC_NODE = 330.0132
ARG_OF_PERICENTER = 274.2214
MEAN_ANOMALY   = 85.7130

EPHEMERIS_TYPE = 0
CLASSIFICATION_TYPE = U
NORAD_CAT_ID   = 14820
ELEMENT_SET_NO = 999
REV_AT_EPOCH   = 23417
BSTAR          = .93826E-4
MEAN_MOTION_DOT = .843E-5
MEAN_MOTION_DDOT = 0

CCSDS_OMM_VERS = 2.0
CREATION_DATE  = 
ORIGINATOR     = 

OBJECT_NAME    = SL-8 R/B
OBJECT_ID      = 1985-006B
CENTER_NAME    = EARTH
REF_FRAME      = TEME
TIME_SYSTEM    = UTC
MEAN_ELEMENT_THEORY = SGP/SGP4

EPOCH          = 2025-12-09T04:41:35.054304
MEAN_MOTION    = 14.37717807
ECCENTRICITY   = .0018525
INCLINATION    = 74.0466
RA_OF_ASC_NODE = 67.6554
ARG_OF_PERICENTER = 0.7925
MEAN_ANOMALY   = 23.6277

EPHEMERIS_TYPE = 0
CLASSIFICATION_TYPE = U
NORAD_CAT_ID   = 15483
ELEMENT_SET_NO = 999
REV_AT_EPOCH   = 14102
BSTAR          = .14357E-3
MEAN_MOTION_DOT = .406E-5
MEAN_MOTION_DDOT = 0

CCSDS_OMM_VERS = 2.0
CREATION_DATE  = 
ORIGINATOR     = 

OBJECT_NAME    = SL-12 R/B(2)
OBJECT_ID      = 1985-042D
CENTER_NAME    = EARTH
REF_FRAME      = TEME
TIME_SYSTEM    = UTC
MEAN_ELEMENT_THEORY = SGP/SGP4

EPOCH          = 2025-12-09T03:57:54.392832
MEAN_MOTION    = 14.21950216
ECCENTRICITY   = .0037679
INCLINATION    = 71.1086
RA_OF_ASC_NODE = 278.9713
ARG_OF_PERICENTER = 266.7703
MEAN_ANOMALY   = 190.1742

EPHEMERIS_TYPE = 0
CLASSIFICATION_TYPE = U
NORAD_CAT_ID   = 15772
ELEMENT_SET_NO = 999
REV_AT_EPOCH   = 10152
BSTAR          = .14343E-3
MEAN_MOTION_DOT = .271E-5
MEAN_MOTION_DDOT = 0

CCSDS_OMM_VERS = 2.0
CREATION_DATE  = 
ORIGINATOR     = 

OBJECT_NAME    = SL-14 R/B
OBJECT_ID      = 1985-069B
CENTER_NAME    = EARTH
REF_FRAME      = TEME
TIME_SYSTEM    = UTC
MEAN_ELEMENT_THEORY = SGP/SGP4

EPOCH          = 2025-12-08T20:44:20.487264
MEAN_MOTION    = 14.86316884
ECCENTRICITY   = .00199396
INCLINATION    = 82.5264
RA_OF_ASC_NODE = 110.3462
ARG_OF_PERICENTER = 130.5466
MEAN_ANOMALY   = 229.7491

EPHEMERIS_TYPE = 0
CLASSIFICATION_TYPE = U
NORAD_CAT_ID   = 15945
ELEMENT_SET_NO = 999
REV_AT_EPOCH   = 15934
BSTAR          = .10547341E-3
MEAN_MOTION_DOT = .956E-5
MEAN_MOTION_DDOT = 0

CCSDS_OMM_VERS = 2.0
CREATION_DATE  = 
ORIGINATOR     = 

OBJECT_NAME    = SL-16 R/B
OBJECT_ID      = 1985-097B
CENTER_NAME    = EARTH
REF_FRAME      = TEME
TIME_SYSTEM    = UTC
MEAN_ELEMENT_THEORY = SGP/SGP4

EPOCH          = 2025-12-09T04:21:18.226080
MEAN_MOTION    = 14.16582057
ECCENTRICITY   = .0006456
INCLINATION    = 71.0029
RA_OF_ASC_NODE = 331.0944
ARG_OF_PERICENTER = 16.5544
MEAN_ANOMALY   = 61.0946

EPHEMERIS_TYPE = 0
CLASSIFICATION_TYPE = U
NORAD_CAT_ID   = 16182
ELEMENT_SET_NO = 999
REV_AT_EPOCH   = 7441
BSTAR          = .82789E-4
MEAN_MOTION_DOT = .117E-5
MEAN_MOTION_DDOT = 0

CCSDS_OMM_VERS = 2.0
CREATION_DATE  = 
ORIGINATOR     = 

OBJECT_NAME    = SL-14 R/B
OBJECT_ID      = 1986-006B
CENTER_NAME    = EARTH
REF_FRAME      = TEME
TIME_SYSTEM    = UTC
MEAN_ELEMENT_THEORY = SGP/SGP4

EPOCH          = 2025-12-09T01:34:08.044896
MEAN_MOTION    = 14.86663933
ECCENTRICITY   = .0075871
INCLINATION    = 82.5264
RA_OF_ASC_NODE = 345.0089
ARG_OF_PERICENTER = 212.1209
MEAN_ANOMALY   = 147.5375

EPHEMERIS_TYPE = 0
CLASSIFICATION_TYPE = U
NORAD_CAT_ID   = 16496
ELEMENT_SET_NO = 999
REV_AT_EPOCH   = 13574
BSTAR          = .10342E-3
MEAN_MOTION_DOT = .994E-5
MEAN_MOTION_DDOT = 0

CCSDS_OMM_VERS = 2.0
CREATION_DATE  = 
ORIGINATOR     = 

OBJECT_NAME    = COSMOS 1743
OBJECT_ID      = 1986-034A
CENTER_NAME    = EARTH
REF_FRAME      = TEME
TIME_SYSTEM    = UTC
MEAN_ELEMENT_THEORY = SGP/SGP4

EPOCH          = 2025-12-08T23:30:12.824640
MEAN_MOTION    = 15.51849355
ECCENTRICITY   = .00046868
INCLINATION    = 82.5348
RA_OF_ASC_NODE = 168.4969
ARG_OF_PERICENTER = 270.2692
MEAN_ANOMALY   = 89.8023

EPHEMERIS_TYPE = 0
CLASSIFICATION_TYPE = U
NORAD_CAT_ID   = 16719
ELEMENT_SET_NO = 999
REV_AT_EPOCH   = 16615
BSTAR          = .54301546E-3
MEAN_MOTION_DOT = .3261E-3
MEAN_MOTION_DDOT = 0

