SL-3 R/B                
1 13403U 82079B   25343.13438115  .00006951  00000+0  28711-3 0  9992
2 13403  81.1473 299.9102 0026958 110.5867 249.8261 15.23521483363904
SL-14 R/B               
1 13553U 82092B   25342.96893878  .00000762  00000+0  83118-4 0  9991
2 13553  82.5688 226.2381 0018990 240.4689 130.0152 14.86549519315452
SL-3 R/B                
1 13819U 83010B   25343.07654072  .00016743  00000+0  37311-3 0  9990
2 13819  81.1042 113.0898 0017360   3.9108 356.2267 15.43304161343951
SL-3 R/B                
1 14208U 83075B   25343.13927870  .00012763  00000+0  36317-3 0  9993
2 14208  97.6107 339.5019 0022345 188.3037 171.7839 15.36021262316243
COSMOS 1536             
1 14699U 84013A   25343.06006346  .00007030  00000+0  30180-3 0  9991
2 14699  82.5455 197.8137 0013368 239.9466 120.0445 15.22455565258827
SL-14 R/B               
1 14820U 84027B   25343.05372449  .00000843  00000+0  93826-4 0  9993
2 14820  82.5410 330.0132 0016386 274.2214  85.7130 14.85867983234175
SL-8 R/B                
1 15483U 85006B   25343.19554461  .00000406  00000+0  14357-3 0  9994
2 15483  74.0466  67.6554 0018525   0.7925  23.6277 14.37717807141027
SL-12 R/B(2)            
1 15772U 85042D   25343.16521288  .00000271  00000+0  14343-3 0  9998
2 15772  71.1086 278.9713 0037679 266.7703 190.1742 14.21950216101521
SL-14 R/B               
1 15945U 85069B   25342.86412601  .00000956  00000+0  10547-3 0  9995
2 15945  82.5264 110.3462 0019939 130.5466 229.7491 14.86316884159341
SL-16 R/B               
1 16182U 85097B   25343.18146095  .00000117  00000+0  82789-4 0  9994
2 16182  71.0029 331.0944 0006456  16.5544  61.0946 14.16582057 74410
SL-14 R/B               
1 16496U 86006B   25343.06537089  .00000994  00000+0  10342-3 0  9995
2 16496  82.5264 345.0089 0075871 212.1209 147.5375 14.86663933135740
COSMOS 1743             
1 16719U 86034A   25342.97931510  .00032610  00000+0  54302-3 0  9994
2 16719  82.5348 168.4969 0004686 270.2692  89.8023 15.51849355166156
